NORAD_CAT_ID,OBJECT_NAME,OBJECT_TYPE,EPOCH,MEAN_MOTION,ECCENTRICITY,INCLINATION,RA_OF_ASC_NODE,ARG_OF_PERICENTER,MEAN_ANOMALY,BSTAR,MEAN_MOTION_DOT,MEAN_MOTION_DDOT,TLE_LINE0,TLE_LINE1,TLE_LINE2,SEMIMAJOR_AXIS,PERIOD,APOGEE,PERIGEE,DECAYED
55289.0,STARLINK-5320,PAYLOAD,2023-11-27 04:03:05,14.98315615,0.0002336,69.9996,326.1473,270.2884,89.8007,-0.00023275,-2.868e-05,0.0,0 STARLINK-5320,1 55289U 23010W   23331.16881334 -.00002868  00000-0 -23275-3 0  9999,2 55289  69.9996 326.1473 0002336 270.2884  89.8007 14.98315615 48108,6950.237,96.108,573.726,570.479,0.0
55289.0,STARLINK-5320,PAYLOAD,2023-11-27 10:27:37,14.98314055,0.0002103,70.0,325.4738,261.2458,98.8463,-0.00020946,-2.59e-05,0.0,0 STARLINK-5320,1 55289U 23010W   23331.43585550 -.00002590  00000-0 -20946-3 0  9994,2 55289  70.0000 325.4738 0002103 261.2458  98.8463 14.98314055 48453,6950.242,96.108,573.569,570.646,0.0
55289.0,STARLINK-5320,PAYLOAD,2023-11-28 02:28:57,14.98323759,0.0002107,70.0019,323.7948,240.9643,119.1305,-3.2341e-05,-4.79e-06,0.0,0 STARLINK-5320,1 55289U 23010W   23332.10344604 -.00000479  00000-0 -32341-4 0  9999,2 55289  70.0019 323.7948 0002107 240.9643 119.1305 14.98323759 48241,6950.212,96.107,573.542,570.613,0.0
55289.0,STARLINK-5320,PAYLOAD,2023-11-28 08:53:29,14.98329162,0.0002043,70.0002,323.1184,241.376,118.7194,-2.4077e-06,-1.22e-06,0.0,0 STARLINK-5320,1 55289U 23010W   23332.37048216 -.00000122  00000-0 -24077-5 0  9991,2 55289  70.0002 323.1184 0002043 241.3760 118.7194 14.98329162 48596,6950.195,96.107,573.48,570.641,0.0
55289.0,STARLINK-5320,PAYLOAD,2023-11-29 08:55:30,14.98326089,0.000218,69.9996,320.5915,269.3164,90.7745,0.00022158,2.552e-05,0.0,0 STARLINK-5320,1 55289U 23010W   23333.37187897  .00002552  00000-0  22158-3 0  9994,2 55289  69.9996 320.5915 0002180 269.3164  90.7745 14.98326089 48437,6950.205,96.107,573.585,570.555,0.0
55289.0,STARLINK-5320,PAYLOAD,2023-11-30 08:57:31,14.98334799,0.0002608,69.9989,318.0668,263.6325,96.4537,-1.0006e-05,-2.12e-06,0.0,0 STARLINK-5320,1 55289U 23010W   23334.37327816 -.00000212  00000-0 -10006-4 0  9995,2 55289  69.9989 318.0668 0002608 263.6325  96.4537 14.98334799 48582,6950.178,96.107,573.856,570.23,0.0
55289.0,STARLINK-5320,PAYLOAD,2023-12-01 08:59:32,14.98332459,0.0002505,69.9994,315.5432,258.3981,101.6897,-6.5015e-05,-8.69e-06,0.0,0 STARLINK-5320,1 55289U 23010W   23335.37467901 -.00000869  00000-0 -65015-4 0  9994,2 55289  69.9994 315.5432 0002505 258.3981 101.6897 14.98332459 48730,6950.185,96.107,573.791,570.309,0.0
55289.0,STARLINK-5320,PAYLOAD,2023-12-02 01:00:51,14.9834072,0.0002613,69.9991,313.8585,262.5733,97.5129,9.7139e-05,1.067e-05,0.0,0 STARLINK-5320,1 55289U 23010W   23336.04226678  .00001067  00000-0  97139-4 0  9994,2 55289  69.9991 313.8585 0002613 262.5733  97.5129 14.98340720 48831,6950.16,96.106,573.841,570.209,0.0
55289.0,STARLINK-5320,PAYLOAD,2023-12-02 09:01:31,14.98340214,0.0001931,70.0008,313.0187,252.5012,107.5936,0.00021689,2.497e-05,0.0,0 STARLINK-5320,1 55289U 23010W   23336.37606237  .00002497  00000-0  21689-3 0  9997,2 55289  70.0008 313.0187 0001931 252.5012 107.5936 14.98340214 49190,6950.161,96.106,573.368,570.684,0.0
55289.0,STARLINK-5320,PAYLOAD,2023-12-03 02:39:03,14.9831055,0.0002568,69.9991,311.1644,275.3277,84.7589,-0.00022003,-2.716e-05,0.0,0 STARLINK-5320,1 55289U 23010W   23337.11045269 -.00002716  00000-0 -22003-3 0  9999,2 55289  69.9991 311.1644 0002568 275.3277  84.7589 14.98310550 48995,6950.253,96.108,573.903,570.333,0.0
55289.0,STARLINK-5320,PAYLOAD,2023-12-03 07:27:27,14.98312925,0.0002635,69.9991,310.6608,265.365,94.7208,-0.00017128,-2.135e-05,0.0,0 STARLINK-5320,1 55289U 23010W   23337.31073129 -.00002135  00000-0 -17128-3 0  9994,2 55289  69.9991 310.6608 0002635 265.3650  94.7208 14.98312925 49334,6950.246,96.108,573.942,570.279,0.0
55289.0,STARLINK-5320,PAYLOAD,2023-12-04 02:41:03,14.98331073,0.0002197,70.001,308.6429,235.915,124.18,-0.00013468,-1.699e-05,0.0,0 STARLINK-5320,1 55289U 23010W   23338.11184316 -.00001699  00000-0 -13468-3 0  9991,2 55289  70.0010 308.6429 0002197 235.9150 124.1800 14.98331073 49148,6950.19,96.107,573.582,570.528,0.0
55289.0,STARLINK-5320,PAYLOAD,2023-12-04 07:29:28,14.98324579,0.000191,70.0009,308.1376,254.6539,105.4409,-0.0001847,-2.295e-05,0.0,0 STARLINK-5320,1 55289U 23010W   23338.31213007 -.00002295  00000-0 -18470-3 0  9994,2 55289  70.0009 308.1376 0001910 254.6539 105.4409 14.98324579 49176,6950.21,96.107,573.402,570.747,0.0
55289.0,STARLINK-5320,PAYLOAD,2023-12-04 21:54:39,14.98321656,0.0001988,70.0012,306.6216,265.2962,94.797,0.00031151,3.625e-05,0.0,0 STARLINK-5320,1 55289U 23010W   23338.91295670  .00003625  00000-0  31151-3 0  9993,2 55289  70.0012 306.6216 0001988 265.2962  94.7970 14.98321656 49579,6950.219,96.108,573.465,570.702,0.0
55289.0,STARLINK-5320,PAYLOAD,2023-12-05 02:43:03,14.98326556,0.0002098,70.0004,306.1163,254.0262,106.0666,0.00031054,3.614e-05,0.0,0 STARLINK-5320,1 55289U 23010W   23339.11323408  .00003614  00000-0  31054-3 0  9997,2 55289  70.0004 306.1163 0002098 254.0262 106.0666 14.98326556 49290,6950.204,96.107,573.527,570.61,0.0
55289.0,STARLINK-5320,PAYLOAD,2023-12-05 07:31:27,14.98327625,0.0002123,70.0004,305.6112,255.4426,104.6498,0.00030301,3.524e-05,0.0,0 STARLINK-5320,1 55289U 23010W   23339.31351372  .00003524  00000-0  30301-3 0  9994,2 55289  70.0004 305.6112 0002123 255.4426 104.6498 14.98327625 49637,6950.2,96.107,573.541,570.59,0.0
55289.0,STARLINK-5320,PAYLOAD,2023-12-05 21:56:40,14.98333477,0.0002029,70.0011,304.0976,241.6342,118.4612,9.9253e-05,1.092e-05,0.0,0 STARLINK-5320,1 55289U 23010W   23339.91435497  .00001092  00000-0  99253-4 0  9991,2 55289  70.0011 304.0976 0002029 241.6342 118.4612 14.98333477 49728,6950.182,96.107,573.457,570.637,0.0
55289.0,STARLINK-5320,PAYLOAD,2023-12-06 04:21:12,14.98332105,0.0002137,70.0007,303.4236,245.2092,114.8845,6.1613e-05,6.42e-06,0.0,0 STARLINK-5320,1 55289U 23010W   23340.18139592  .00000642  00000-0  61613-4 0  9998,2 55289  70.0007 303.4236 0002137 245.2092 114.8845 14.98332105 49452,6950.186,96.107,573.537,570.566,0.0
55289.0,STARLINK-5320,PAYLOAD,2023-12-06 07:33:28,14.98330604,0.0002093,70.0007,303.0863,236.9634,123.1324,2.1005e-05,1.58e-06,0.0,0 STARLINK-5320,1 55289U 23010W   23340.31491775  .00000158  00000-0  21005-4 0  9990,2 55289  70.0007 303.0863 0002093 236.9634 123.1324 14.98330604 49787,6950.191,96.107,573.511,570.601,0.0
55289.0,STARLINK-5320,PAYLOAD,2023-12-06 20:22:33,14.98337911,0.0002126,70.0005,301.7395,249.113,110.9801,-8.7669e-05,-1.139e-05,0.0,0 STARLINK-5320,1 55289U 23010W   23340.84899457 -.00001139  00000-0 -87669-4 0  9997,2 55289  70.0005 301.7395 0002126 249.1130 110.9801 14.98337911 49865,6950.168,96.106,573.511,570.556,0.0
55289.0,STARLINK-5320,PAYLOAD,2023-12-07 04:23:13,14.9833241,0.0002322,69.9997,300.8968,260.0288,100.0609,-0.00014031,-1.767e-05,0.0,0 STARLINK-5320,1 55289U 23010W   23341.18279857 -.00001767  00000-0 -14031-3 0  9990,2 55289  69.9997 300.8968 0002322 260.0288 100.0609 14.98332410 49609,6950.185,96.107,573.664,570.437,0.0
55289.0,STARLINK-5320,PAYLOAD,2023-12-07 07:35:29,14.98331837,0.0002368,70.0,300.5597,264.19,95.899,-0.00016528,-2.064e-05,0.0,0 STARLINK-5320,1 55289U 23010W   23341.31631943 -.00002064  00000-0 -16528-3 0  9997,2 55289  70.0000 300.5597 0002368 264.1900  95.8990 14.98331837 49930,6950.187,96.107,573.698,570.406,0.0
55289.0,STARLINK-5320,PAYLOAD,2023-12-08 07:37:30,14.98331015,0.0002548,69.999,298.0333,268.8934,91.1933,-2.3501e-05,-3.73e-06,0.0,0 STARLINK-5320,1 55289U 23010W   23342.31771469 -.00000373  00000-0 -23501-4 0  9997,2 55289  69.9990 298.0333 0002548 268.8934  91.1933 14.98331015 49778,6950.19,96.107,573.826,570.284,0.0
55289.0,STARLINK-5320,PAYLOAD,2023-12-09 06:03:23,14.9833218,0.0002543,69.999,295.6765,271.9429,88.1439,7.423e-05,7.93e-06,0.0,0 STARLINK-5320,1 55289U 23010W   23343.25235052  .00000793  00000-0  74230-4 0  9993,2 55289  69.9990 295.6765 0002543 271.9429  88.1439 14.98332180 50222,6950.186,96.107,573.819,570.284,0.0
55289.0,STARLINK-5320,PAYLOAD,2023-12-09 20:28:36,14.98328092,0.0002401,69.9993,294.1614,277.3211,82.7675,3.2143e-06,-5.5e-07,0.0,0 STARLINK-5320,1 55289U 23010W   23343.85319522 -.00000055  00000-0  32143-5 0  9994,2 55289  69.9993 294.1614 0002401 277.3211  82.7675 14.98328092 50009,6950.199,96.107,573.733,570.395,0.0
55289.0,STARLINK-5320,PAYLOAD,2023-12-10 22:06:45,14.98330474,0.0001979,70.0008,291.4675,264.2683,95.825,-5.4341e-05,-7.41e-06,0.0,0 STARLINK-5320,1 55289U 23010W   23344.92135496 -.00000741  00000-0 -54341-4 0  9995,2 55289  70.0008 291.4675 0001979 264.2683  95.8250 14.98330474 50475,6950.191,96.107,573.432,570.681,0.0
55289.0,STARLINK-5320,PAYLOAD,2023-12-11 04:31:17,14.98328341,0.000216,70.0,290.7981,252.1104,107.9819,-3.0018e-05,-4.51e-06,0.0,0 STARLINK-5320,1 55289U 23010W   23345.18839468 -.00000451  00000-0 -30018-4 0  9997,2 55289  70.0000 290.7981 0002160 252.1104 107.9819 14.98328341 50203,6950.198,96.107,573.564,570.562,0.0
55289.0,STARLINK-5320,PAYLOAD,2023-12-11 06:07:25,14.98328661,0.0002191,69.9998,290.6296,255.0084,105.0833,-2.5574e-05,-3.98e-06,0.0,0 STARLINK-5320,1 55289U 23010W   23345.25515446 -.00000398  00000-0 -25574-4 0  9993,2 55289  69.9998 290.6296 0002191 255.0084 105.0833 14.98328661 50522,6950.197,96.107,573.585,570.539,0.0
55289.0,STARLINK-5320,PAYLOAD,2023-12-11 22:08:45,14.98329734,0.0002324,69.9995,288.9451,258.0056,102.0842,3.3154e-05,3.03e-06,0.0,0 STARLINK-5320,1 55289U 23010W   23345.92275171  .00000303  00000-0  33154-4 0  9992,2 55289  69.9995 288.9451 0002324 258.0056 102.0842 14.98329734 50622,6950.194,96.107,573.674,570.443,0.0
55289.0,STARLINK-5320,PAYLOAD,2023-12-12 06:09:26,14.98329287,0.0002366,69.9993,288.1032,260.5085,99.5806,2.6855e-05,2.28e-06,0.0,0 STARLINK-5320,1 55289U 23010W   23346.25655231  .00000228  00000-0  26855-4 0  9994,2 55289  69.9993 288.1032 0002366 260.5085  99.5806 14.98329287 50367,6950.195,96.107,573.705,570.416,0.0
